{
  "type": "FeatureCollection",
  "metadata": {
    "version": "2.0.0",
    "schema_version": "2.0",
    "updated_at": "2026-03-08T00:00:00Z",
    "description": "Enriched Sahel Arena game map — territories, zones, and neighbours",
    "projection": "EPSG:4326",
    "feature_types": [
      "territory",
      "zone",
      "neighbour"
    ]
  },
  "features": [
    {
      "type": "Feature",
      "properties": {
        "key": "chad",
        "iso_a3": "TCD",
        "ADM0_A3": "TCD",
        "name": "Chad",
        "name_key": "loc.territory.chad.name",
        "playable": true,
        "coords": {
          "lat": 12.1348,
          "lon": 15.0557
        },
        "capital": "N'Djamena",
        "population": 17400000,
        "base_stability": 42,
        "base_insurgency": 48,
        "strategic_value": "high",
        "zone_ids": [
          "lake_chad",
          "ndjamena"
        ],
        "feature_type": "territory"
      },
      "geometry": {
        "type": "Polygon",
        "coordinates": [
          [
            [
              23.8377,
              19.5805
            ],
            [
              23.8869,
              15.6108
            ],
            [
              23.0246,
              15.6807
            ],
            [
              22.5679,
              14.9443
            ],
            [
              22.3035,
              14.3268
            ],
            [
              22.512,
              14.0932
            ],
            [
              22.1833,
              13.7865
            ],
            [
              22.2966,
              13.3723
            ],
            [
              22.0376,
              12.9555
            ],
            [
              21.9368,
              12.5882
            ],
            [
              22.288,
              12.6461
            ],
            [
              22.4976,
              12.2602
            ],
            [
              22.5087,
              11.6794
            ],
            [
              22.8762,
              11.3846
            ],
            [
              22.8642,
              11.1424
            ],
            [
              22.2311,
              10.9719
            ],
            [
              21.7238,
              10.5671
            ],
            [
              21.0009,
              9.476
            ],
            [
              20.0597,
              9.0127
            ],
            [
              19.094,
              9.0748
            ],
            [
              18.812,
              8.9829
            ],
            [
              18.911,
              8.6309
            ],
            [
              18.3896,
              8.2813
            ],
            [
              17.9649,
              7.8909
            ],
            [
              16.706,
              7.5083
            ],
            [
              16.4562,
              7.7348
            ],
            [
              16.2906,
              7.7543
            ],
            [
              16.1062,
              7.4971
            ],
            [
              15.2795,
              7.4219
            ],
            [
              15.4361,
              7.6928
            ],
            [
              15.1209,
              8.3821
            ],
            [
              14.98,
              8.7961
            ],
            [
              14.5445,
              8.9659
            ],
            [
              13.9542,
              9.5495
            ],
            [
              14.1715,
              10.0214
            ],
            [
              14.6272,
              9.9209
            ],
            [
              14.9094,
              9.9921
            ],
            [
              15.4679,
              9.9823
            ],
            [
              14.9236,
              10.8913
            ],
            [
              14.9602,
              11.5556
            ],
            [
              14.8934,
              12.219
            ],
            [
              14.4958,
              12.8594
            ],
            [
              14.5958,
              13.3304
            ],
            [
              13.9545,
              13.3534
            ],
            [
              13.9567,
              13.9967
            ],
            [
              13.5404,
              14.3671
            ],
            [
              13.9722,
              15.6844
            ],
            [
              15.2477,
              16.6273
            ],
            [
              15.3004,
              17.9279
            ],
            [
              15.6857,
              19.9572
            ],
            [
              15.9032,
              20.3876
            ],
            [
              15.4871,
              20.7304
            ],
            [
              15.4711,
              21.0484
            ],
            [
              15.0969,
              21.3085
            ],
            [
              14.8513,
              22.863
            ],
            [
              15.8608,
              23.4097
            ],
            [
              19.8493,
              21.4951
            ],
            [
              23.8377,
              19.5805
            ]
          ]
        ]
      }
    },
    {
      "type": "Feature",
      "properties": {
        "key": "mali",
        "iso_a3": "MLI",
        "ADM0_A3": "MLI",
        "name": "Mali",
        "name_key": "loc.territory.mali.name",
        "playable": true,
        "coords": {
          "lat": 12.6392,
          "lon": -8.0029
        },
        "capital": "Bamako",
        "population": 21900000,
        "base_stability": 35,
        "base_insurgency": 58,
        "strategic_value": "critical",
        "zone_ids": [
          "mopti",
          "segou",
          "timbuktu",
          "gao",
          "bamako"
        ],
        "feature_type": "territory"
      },
      "geometry": {
        "type": "Polygon",
        "coordinates": [
          [
            [
              -11.5139,
              12.443
            ],
            [
              -11.4679,
              12.7545
            ],
            [
              -11.5534,
              13.1412
            ],
            [
              -11.9277,
              13.4221
            ],
            [
              -12.1249,
              13.9947
            ],
            [
              -12.1707,
              14.6168
            ],
            [
              -11.8342,
              14.7991
            ],
            [
              -11.6661,
              15.3882
            ],
            [
              -11.3491,
              15.4113
            ],
            [
              -10.6508,
              15.1327
            ],
            [
              -10.0868,
              15.3305
            ],
            [
              -9.7003,
              15.2641
            ],
            [
              -9.5502,
              15.4865
            ],
            [
              -5.5377,
              15.5017
            ],
            [
              -5.3153,
              16.2019
            ],
            [
              -5.4885,
              16.3251
            ],
            [
              -5.9711,
              20.6408
            ],
            [
              -6.4538,
              24.9566
            ],
            [
              -4.9233,
              24.9746
            ],
            [
              -1.5501,
              22.7927
            ],
            [
              1.8232,
              20.6108
            ],
            [
              2.061,
              20.1422
            ],
            [
              2.6836,
              19.8562
            ],
            [
              3.1467,
              19.6936
            ],
            [
              3.1581,
              19.0574
            ],
            [
              4.2674,
              19.1553
            ],
            [
              4.2702,
              16.8522
            ],
            [
              3.7234,
              16.1843
            ],
            [
              3.6383,
              15.5681
            ],
            [
              2.75,
              15.4095
            ],
            [
              1.3855,
              15.3236
            ],
            [
              1.0158,
              14.9682
            ],
            [
              0.3749,
              14.9289
            ],
            [
              -0.2663,
              14.9243
            ],
            [
              -0.5159,
              15.1162
            ],
            [
              -1.0664,
              14.9738
            ],
            [
              -2.001,
              14.559
            ],
            [
              -2.1918,
              14.2464
            ],
            [
              -2.9677,
              13.7981
            ],
            [
              -3.1037,
              13.5413
            ],
            [
              -3.5228,
              13.3377
            ],
            [
              -4.0064,
              13.4725
            ],
            [
              -4.2804,
              13.2284
            ],
            [
              -4.4272,
              12.5426
            ],
            [
              -5.2209,
              11.7139
            ],
            [
              -5.1978,
              11.3751
            ],
            [
              -5.4706,
              10.9513
            ],
            [
              -5.4043,
              10.3707
            ],
            [
              -5.8169,
              10.2226
            ],
            [
              -6.0505,
              10.0964
            ],
            [
              -6.2052,
              10.5241
            ],
            [
              -6.494,
              10.4113
            ],
            [
              -6.6665,
              10.4308
            ],
            [
              -6.8505,
              10.139
            ],
            [
              -7.6228,
              10.1472
            ],
            [
              -7.8996,
              10.2974
            ],
            [
              -8.0299,
              10.2065
            ],
            [
              -8.3354,
              10.4948
            ],
            [
              -8.2824,
              10.7926
            ],
            [
              -8.4073,
              10.9093
            ],
            [
              -8.6203,
              10.8109
            ],
            [
              -8.5813,
              11.1362
            ],
            [
              -8.3763,
              11.3936
            ],
            [
              -8.7861,
              11.8126
            ],
            [
              -8.9053,
              12.0884
            ],
            [
              -9.1275,
              12.3081
            ],
            [
              -9.3276,
              12.3343
            ],
            [
              -9.5679,
              12.1942
            ],
            [
              -9.891,
              12.0605
            ],
            [
              -10.1652,
              11.8441
            ],
            [
              -10.5932,
              11.924
            ],
            [
              -10.8708,
              12.1779
            ],
            [
              -11.0366,
              12.2112
            ],
            [
              -11.2976,
              12.078
            ],
            [
              -11.4562,
              12.0768
            ],
            [
              -11.5139,
              12.443
            ]
          ]
        ]
      }
    },
    {
      "type": "Feature",
      "properties": {
        "key": "mauritania",
        "iso_a3": "MRT",
        "ADM0_A3": "MRT",
        "name": "Mauritania",
        "name_key": "loc.territory.mauritania.name",
        "playable": true,
        "coords": {
          "lat": 18.0735,
          "lon": -15.9582
        },
        "capital": "Nouakchott",
        "population": 4600000,
        "base_stability": 58,
        "base_insurgency": 28,
        "strategic_value": "medium",
        "zone_ids": [
          "mauritania_south",
          "nouakchott"
        ],
        "feature_type": "territory"
      },
      "geometry": {
        "type": "Polygon",
        "coordinates": [
          [
            [
              -17.0634,
              20.9998
            ],
            [
              -16.8452,
              21.3333
            ],
            [
              -12.9291,
              21.3271
            ],
            [
              -13.1188,
              22.7712
            ],
            [
              -12.8742,
              23.2848
            ],
            [
              -11.9372,
              23.3746
            ],
            [
              -11.9694,
              25.9334
            ],
            [
              -8.6873,
              25.8811
            ],
            [
              -8.6844,
              27.3957
            ],
            [
              -4.9233,
              24.9746
            ],
            [
              -6.4538,
              24.9566
            ],
            [
              -5.9711,
              20.6408
            ],
            [
              -5.4885,
              16.3251
            ],
            [
              -5.3153,
              16.2019
            ],
            [
              -5.5377,
              15.5017
            ],
            [
              -9.5502,
              15.4865
            ],
            [
              -9.7003,
              15.2641
            ],
            [
              -10.0868,
              15.3305
            ],
            [
              -10.6508,
              15.1327
            ],
            [
              -11.3491,
              15.4113
            ],
            [
              -11.6661,
              15.3882
            ],
            [
              -11.8342,
              14.7991
            ],
            [
              -12.1707,
              14.6168
            ],
            [
              -12.8307,
              15.3037
            ],
            [
              -13.4357,
              16.0394
            ],
            [
              -14.0995,
              16.3043
            ],
            [
              -14.5773,
              16.5983
            ],
            [
              -15.1357,
              16.5873
            ],
            [
              -15.6237,
              16.3693
            ],
            [
              -16.1207,
              16.4557
            ],
            [
              -16.4631,
              16.135
            ],
            [
              -16.5497,
              16.6739
            ],
            [
              -16.2706,
              17.167
            ],
            [
              -16.1463,
              18.1085
            ],
            [
              -16.2569,
              19.0967
            ],
            [
              -16.3777,
              19.5938
            ],
            [
              -16.2778,
              20.0925
            ],
            [
              -16.5363,
              20.5679
            ],
            [
              -17.0634,
              20.9998
            ]
          ]
        ]
      }
    },
    {
      "type": "Feature",
      "properties": {
        "key": "niger",
        "iso_a3": "NER",
        "ADM0_A3": "NER",
        "name": "Niger",
        "name_key": "loc.territory.niger.name",
        "playable": true,
        "coords": {
          "lat": 13.5137,
          "lon": 2.1098
        },
        "capital": "Niamey",
        "population": 25100000,
        "base_stability": 45,
        "base_insurgency": 42,
        "strategic_value": "high",
        "zone_ids": [
          "niger_west",
          "niamey",
          "niger_south"
        ],
        "feature_type": "territory"
      },
      "geometry": {
        "type": "Polygon",
        "coordinates": [
          [
            [
              14.8513,
              22.863
            ],
            [
              15.0969,
              21.3085
            ],
            [
              15.4711,
              21.0484
            ],
            [
              15.4871,
              20.7304
            ],
            [
              15.9032,
              20.3876
            ],
            [
              15.6857,
              19.9572
            ],
            [
              15.3004,
              17.9279
            ],
            [
              15.2477,
              16.6273
            ],
            [
              13.9722,
              15.6844
            ],
            [
              13.5404,
              14.3671
            ],
            [
              13.9567,
              13.9967
            ],
            [
              13.9545,
              13.3534
            ],
            [
              14.5958,
              13.3304
            ],
            [
              14.4958,
              12.8594
            ],
            [
              14.2135,
              12.802
            ],
            [
              14.1813,
              12.4837
            ],
            [
              13.9954,
              12.4616
            ],
            [
              13.3187,
              13.5564
            ],
            [
              13.084,
              13.5961
            ],
            [
              12.3021,
              13.0372
            ],
            [
              11.5278,
              13.329
            ],
            [
              10.9896,
              13.3873
            ],
            [
              10.701,
              13.2469
            ],
            [
              10.1148,
              13.2773
            ],
            [
              9.5249,
              12.8511
            ],
            [
              9.0149,
              12.8267
            ],
            [
              7.8047,
              13.3435
            ],
            [
              7.3307,
              13.098
            ],
            [
              6.8204,
              13.1151
            ],
            [
              6.4454,
              13.4928
            ],
            [
              5.4431,
              13.8659
            ],
            [
              4.3683,
              13.7475
            ],
            [
              4.1079,
              13.5312
            ],
            [
              3.9673,
              12.9561
            ],
            [
              3.6806,
              12.5529
            ],
            [
              3.6112,
              11.6602
            ],
            [
              2.8486,
              12.2356
            ],
            [
              2.4902,
              12.2331
            ],
            [
              2.1545,
              11.9401
            ],
            [
              2.1771,
              12.625
            ],
            [
              1.0241,
              12.8518
            ],
            [
              0.993,
              13.3358
            ],
            [
              0.4299,
              13.9887
            ],
            [
              0.2956,
              14.4442
            ],
            [
              0.3749,
              14.9289
            ],
            [
              1.0158,
              14.9682
            ],
            [
              1.3855,
              15.3236
            ],
            [
              2.75,
              15.4095
            ],
            [
              3.6383,
              15.5681
            ],
            [
              3.7234,
              16.1843
            ],
            [
              4.2702,
              16.8522
            ],
            [
              4.2674,
              19.1553
            ],
            [
              5.6776,
              19.6012
            ],
            [
              8.5729,
              21.5657
            ],
            [
              11.9995,
              23.4717
            ],
            [
              13.5814,
              23.0405
            ],
            [
              14.1439,
              22.4913
            ],
            [
              14.8513,
              22.863
            ]
          ]
        ]
      }
    },
    {
      "type": "Feature",
      "properties": {
        "key": "burkina_faso",
        "iso_a3": "BFA",
        "ADM0_A3": "BFA",
        "name": "Burkina Faso",
        "name_key": "loc.territory.burkina_faso.name",
        "playable": true,
        "coords": {
          "lat": 12.3714,
          "lon": -1.5197
        },
        "capital": "Ouagadougou",
        "population": 22100000,
        "base_stability": 38,
        "base_insurgency": 55,
        "strategic_value": "high",
        "zone_ids": [
          "burkina_north",
          "burkina_east",
          "ouagadougou"
        ],
        "feature_type": "territory"
      },
      "geometry": {
        "type": "Polygon",
        "coordinates": [
          [
            [
              -5.4043,
              10.3707
            ],
            [
              -5.4706,
              10.9513
            ],
            [
              -5.1978,
              11.3751
            ],
            [
              -5.2209,
              11.7139
            ],
            [
              -4.4272,
              12.5426
            ],
            [
              -4.2804,
              13.2284
            ],
            [
              -4.0064,
              13.4725
            ],
            [
              -3.5228,
              13.3377
            ],
            [
              -3.1037,
              13.5413
            ],
            [
              -2.9677,
              13.7981
            ],
            [
              -2.1918,
              14.2464
            ],
            [
              -2.001,
              14.559
            ],
            [
              -1.0664,
              14.9738
            ],
            [
              -0.5159,
              15.1162
            ],
            [
              -0.2663,
              14.9243
            ],
            [
              0.3749,
              14.9289
            ],
            [
              0.2956,
              14.4442
            ],
            [
              0.4299,
              13.9887
            ],
            [
              0.993,
              13.3358
            ],
            [
              1.0241,
              12.8518
            ],
            [
              2.1771,
              12.625
            ],
            [
              2.1545,
              11.9401
            ],
            [
              1.936,
              11.6411
            ],
            [
              1.4472,
              11.5477
            ],
            [
              1.2435,
              11.1105
            ],
            [
              0.8996,
              10.9973
            ],
            [
              0.0238,
              11.0187
            ],
            [
              -0.4387,
              11.0983
            ],
            [
              -0.7616,
              10.9369
            ],
            [
              -1.2034,
              11.0098
            ],
            [
              -2.9404,
              10.9627
            ],
            [
              -2.9639,
              10.3953
            ],
            [
              -2.8275,
              9.6425
            ],
            [
              -3.5119,
              9.9003
            ],
            [
              -3.9804,
              9.8623
            ],
            [
              -4.3302,
              9.6108
            ],
            [
              -4.7799,
              9.822
            ],
            [
              -4.9547,
              10.1527
            ],
            [
              -5.4043,
              10.3707
            ]
          ]
        ]
      }
    },
    {
      "type": "Feature",
      "properties": {
        "feature_type": "zone",
        "zone_id": "mopti",
        "territory_key": "mali",
        "name_key": "loc.zone.mopti.name",
        "zone_type": "conflict_hotspot",
        "population": 2800000,
        "base_insurgency": 72,
        "base_stability": 32,
        "coords": {
          "lat": 14.4974,
          "lon": -4.187
        },
        "multi_ethnic": true,
        "ethnic_groups": [
          "dogon",
          "fulani",
          "bambara"
        ],
        "adjacent_zones": [
          "segou",
          "timbuktu",
          "burkina_north"
        ],
        "strategic_value": "high",
        "playable": true
      },
      "geometry": {
        "type": "Polygon",
        "coordinates": [
          [
            [
              -5.0,
              15.8
            ],
            [
              -4.2,
              14.8
            ],
            [
              -3.5,
              14.2
            ],
            [
              -3.1,
              13.54
            ],
            [
              -2.97,
              13.8
            ],
            [
              -2.19,
              14.25
            ],
            [
              -2.0,
              14.56
            ],
            [
              -1.07,
              14.97
            ],
            [
              -0.52,
              15.12
            ],
            [
              -0.27,
              14.92
            ],
            [
              0.37,
              14.93
            ],
            [
              1.02,
              14.97
            ],
            [
              1.39,
              15.32
            ],
            [
              2.75,
              15.41
            ],
            [
              1.0,
              16.5
            ],
            [
              -1.0,
              16.5
            ],
            [
              -3.0,
              16.3
            ],
            [
              -5.0,
              15.8
            ]
          ]
        ]
      }
    },
    {
      "type": "Feature",
      "properties": {
        "feature_type": "zone",
        "zone_id": "segou",
        "territory_key": "mali",
        "name_key": "loc.zone.segou.name",
        "zone_type": "urban_center",
        "population": 800000,
        "base_insurgency": 45,
        "base_stability": 50,
        "coords": {
          "lat": 13.4317,
          "lon": -5.6333
        },
        "multi_ethnic": false,
        "ethnic_groups": [
          "bambara"
        ],
        "adjacent_zones": [
          "mopti",
          "bamako"
        ],
        "strategic_value": "medium",
        "playable": true
      },
      "geometry": {
        "type": "Polygon",
        "coordinates": [
          [
            [
              -8.8,
              13.8
            ],
            [
              -10.5,
              14.5
            ],
            [
              -11.83,
              14.8
            ],
            [
              -11.67,
              15.39
            ],
            [
              -11.35,
              15.41
            ],
            [
              -10.65,
              15.13
            ],
            [
              -10.09,
              15.33
            ],
            [
              -9.7,
              15.26
            ],
            [
              -9.55,
              15.49
            ],
            [
              -5.54,
              15.5
            ],
            [
              -5.32,
              16.2
            ],
            [
              -5.0,
              15.8
            ],
            [
              -4.2,
              14.8
            ],
            [
              -3.5,
              14.2
            ],
            [
              -4.01,
              13.47
            ],
            [
              -4.28,
              13.23
            ],
            [
              -4.43,
              12.54
            ],
            [
              -5.22,
              11.71
            ],
            [
              -5.6,
              12.5
            ],
            [
              -7.0,
              13.2
            ],
            [
              -8.8,
              13.8
            ]
          ]
        ]
      }
    },
    {
      "type": "Feature",
      "properties": {
        "feature_type": "zone",
        "zone_id": "timbuktu",
        "territory_key": "mali",
        "name_key": "loc.zone.timbuktu.name",
        "zone_type": "remote_contested",
        "population": 120000,
        "base_insurgency": 78,
        "base_stability": 28,
        "coords": {
          "lat": 16.7735,
          "lon": -3.0074
        },
        "multi_ethnic": true,
        "ethnic_groups": [
          "tuareg",
          "arab",
          "songhai"
        ],
        "adjacent_zones": [
          "mopti",
          "gao",
          "mauritania_south"
        ],
        "strategic_value": "high",
        "playable": true
      },
      "geometry": {
        "type": "Polygon",
        "coordinates": [
          [
            [
              -5.0,
              15.8
            ],
            [
              -3.0,
              16.3
            ],
            [
              -1.0,
              16.5
            ],
            [
              1.0,
              16.5
            ],
            [
              2.75,
              15.41
            ],
            [
              3.64,
              15.57
            ],
            [
              3.72,
              16.18
            ],
            [
              4.27,
              16.85
            ],
            [
              4.27,
              19.16
            ],
            [
              3.16,
              19.06
            ],
            [
              3.15,
              19.69
            ],
            [
              2.68,
              19.86
            ],
            [
              2.06,
              20.14
            ],
            [
              1.82,
              20.61
            ],
            [
              -1.55,
              22.79
            ],
            [
              -4.92,
              24.97
            ],
            [
              -6.45,
              24.96
            ],
            [
              -5.97,
              20.64
            ],
            [
              -5.49,
              16.33
            ],
            [
              -5.32,
              16.2
            ],
            [
              -5.0,
              15.8
            ]
          ]
        ]
      }
    },
    {
      "type": "Feature",
      "properties": {
        "feature_type": "zone",
        "zone_id": "gao",
        "territory_key": "mali",
        "name_key": "loc.zone.gao.name",
        "zone_type": "border_region",
        "population": 250000,
        "base_insurgency": 70,
        "base_stability": 35,
        "coords": {
          "lat": 16.2717,
          "lon": -0.04
        },
        "multi_ethnic": true,
        "ethnic_groups": [
          "songhai",
          "tuareg"
        ],
        "adjacent_zones": [
          "timbuktu",
          "niger_west"
        ],
        "strategic_value": "high",
        "playable": true
      },
      "geometry": {
        "type": "Polygon",
        "coordinates": [
          [
            [
              0.37,
              14.93
            ],
            [
              0.3,
              14.44
            ],
            [
              0.43,
              13.99
            ],
            [
              0.99,
              13.34
            ],
            [
              1.02,
              12.85
            ],
            [
              2.18,
              12.63
            ],
            [
              2.15,
              11.94
            ],
            [
              1.94,
              11.64
            ],
            [
              1.45,
              11.55
            ],
            [
              1.24,
              11.11
            ],
            [
              0.9,
              10.997
            ],
            [
              0.5,
              11.5
            ],
            [
              0.02,
              11.02
            ],
            [
              -0.44,
              11.1
            ],
            [
              -0.76,
              10.94
            ],
            [
              -1.2,
              11.01
            ],
            [
              -2.94,
              10.96
            ],
            [
              -2.96,
              10.4
            ],
            [
              -2.83,
              9.64
            ],
            [
              -3.1,
              13.54
            ],
            [
              -2.97,
              13.8
            ],
            [
              -2.19,
              14.25
            ],
            [
              -2.0,
              14.56
            ],
            [
              -1.07,
              14.97
            ],
            [
              -0.52,
              15.12
            ],
            [
              -0.27,
              14.92
            ],
            [
              0.37,
              14.93
            ]
          ]
        ]
      }
    },
    {
      "type": "Feature",
      "properties": {
        "feature_type": "zone",
        "zone_id": "bamako",
        "territory_key": "mali",
        "name_key": "loc.zone.bamako.name",
        "zone_type": "capital",
        "population": 4000000,
        "base_insurgency": 25,
        "base_stability": 55,
        "coords": {
          "lat": 12.6392,
          "lon": -8.0029
        },
        "multi_ethnic": false,
        "ethnic_groups": [
          "bambara",
          "malinke"
        ],
        "adjacent_zones": [
          "segou"
        ],
        "strategic_value": "critical",
        "playable": true
      },
      "geometry": {
        "type": "Polygon",
        "coordinates": [
          [
            [
              -9.89,
              12.06
            ],
            [
              -10.17,
              11.84
            ],
            [
              -10.59,
              11.92
            ],
            [
              -10.87,
              12.18
            ],
            [
              -11.04,
              12.21
            ],
            [
              -11.3,
              12.08
            ],
            [
              -11.46,
              12.08
            ],
            [
              -11.51,
              12.44
            ],
            [
              -11.47,
              12.75
            ],
            [
              -11.55,
              13.14
            ],
            [
              -11.93,
              13.42
            ],
            [
              -12.12,
              14.0
            ],
            [
              -12.17,
              14.62
            ],
            [
              -11.83,
              14.8
            ],
            [
              -10.5,
              14.5
            ],
            [
              -8.8,
              13.8
            ],
            [
              -7.0,
              13.2
            ],
            [
              -5.6,
              12.5
            ],
            [
              -5.22,
              11.71
            ],
            [
              -5.2,
              11.38
            ],
            [
              -5.47,
              10.95
            ],
            [
              -5.4,
              10.37
            ],
            [
              -5.82,
              10.22
            ],
            [
              -6.05,
              10.1
            ],
            [
              -6.21,
              10.52
            ],
            [
              -6.49,
              10.41
            ],
            [
              -6.67,
              10.43
            ],
            [
              -6.85,
              10.14
            ],
            [
              -7.62,
              10.15
            ],
            [
              -7.9,
              10.3
            ],
            [
              -8.03,
              10.21
            ],
            [
              -8.34,
              10.49
            ],
            [
              -8.28,
              10.79
            ],
            [
              -8.41,
              10.91
            ],
            [
              -8.62,
              10.81
            ],
            [
              -8.58,
              11.14
            ],
            [
              -8.38,
              11.39
            ],
            [
              -8.79,
              11.81
            ],
            [
              -8.91,
              12.09
            ],
            [
              -9.13,
              12.31
            ],
            [
              -9.33,
              12.33
            ],
            [
              -9.57,
              12.19
            ],
            [
              -9.89,
              12.06
            ]
          ]
        ]
      }
    },
    {
      "type": "Feature",
      "properties": {
        "feature_type": "zone",
        "zone_id": "burkina_north",
        "territory_key": "burkina_faso",
        "name_key": "loc.zone.burkina_north.name",
        "zone_type": "conflict_hotspot",
        "population": 1500000,
        "base_insurgency": 68,
        "base_stability": 35,
        "coords": {
          "lat": 14.099,
          "lon": -1.03
        },
        "multi_ethnic": true,
        "ethnic_groups": [
          "fulani",
          "mossi"
        ],
        "adjacent_zones": [
          "mopti",
          "burkina_east",
          "ouagadougou"
        ],
        "strategic_value": "high",
        "playable": true
      },
      "geometry": {
        "type": "Polygon",
        "coordinates": [
          [
            [
              -3.1,
              13.54
            ],
            [
              -2.97,
              13.8
            ],
            [
              -2.19,
              14.25
            ],
            [
              -2.0,
              14.56
            ],
            [
              -1.07,
              14.97
            ],
            [
              -0.52,
              15.12
            ],
            [
              -0.27,
              14.92
            ],
            [
              0.37,
              14.93
            ],
            [
              0.3,
              14.44
            ],
            [
              0.43,
              13.99
            ],
            [
              0.5,
              13.5
            ],
            [
              0.0,
              12.5
            ],
            [
              -1.0,
              12.0
            ],
            [
              -2.0,
              13.0
            ],
            [
              -3.1,
              13.54
            ]
          ]
        ]
      }
    },
    {
      "type": "Feature",
      "properties": {
        "feature_type": "zone",
        "zone_id": "burkina_east",
        "territory_key": "burkina_faso",
        "name_key": "loc.zone.burkina_east.name",
        "zone_type": "border_region",
        "population": 1200000,
        "base_insurgency": 62,
        "base_stability": 38,
        "coords": {
          "lat": 12.0617,
          "lon": 0.3548
        },
        "multi_ethnic": true,
        "ethnic_groups": [
          "gourma",
          "fulani"
        ],
        "adjacent_zones": [
          "burkina_north",
          "niger_west"
        ],
        "strategic_value": "medium",
        "playable": true
      },
      "geometry": {
        "type": "Polygon",
        "coordinates": [
          [
            [
              0.0,
              12.5
            ],
            [
              0.5,
              13.5
            ],
            [
              0.43,
              13.99
            ],
            [
              0.99,
              13.34
            ],
            [
              1.02,
              12.85
            ],
            [
              2.18,
              12.63
            ],
            [
              2.15,
              11.94
            ],
            [
              1.94,
              11.64
            ],
            [
              1.45,
              11.55
            ],
            [
              1.24,
              11.11
            ],
            [
              0.9,
              10.997
            ],
            [
              0.02,
              11.02
            ],
            [
              -0.44,
              11.1
            ],
            [
              -0.76,
              10.94
            ],
            [
              -1.2,
              11.01
            ],
            [
              -1.0,
              12.0
            ],
            [
              0.0,
              12.5
            ]
          ]
        ]
      }
    },
    {
      "type": "Feature",
      "properties": {
        "feature_type": "zone",
        "zone_id": "ouagadougou",
        "territory_key": "burkina_faso",
        "name_key": "loc.zone.ouagadougou.name",
        "zone_type": "capital",
        "population": 3000000,
        "base_insurgency": 30,
        "base_stability": 52,
        "coords": {
          "lat": 12.3714,
          "lon": -1.5197
        },
        "multi_ethnic": false,
        "ethnic_groups": [
          "mossi"
        ],
        "adjacent_zones": [
          "burkina_north"
        ],
        "strategic_value": "critical",
        "playable": true
      },
      "geometry": {
        "type": "Polygon",
        "coordinates": [
          [
            [
              -5.4,
              10.37
            ],
            [
              -5.47,
              10.95
            ],
            [
              -5.2,
              11.38
            ],
            [
              -5.22,
              11.71
            ],
            [
              -4.43,
              12.54
            ],
            [
              -4.28,
              13.23
            ],
            [
              -4.01,
              13.47
            ],
            [
              -3.52,
              13.34
            ],
            [
              -3.1,
              13.54
            ],
            [
              -2.0,
              13.0
            ],
            [
              -1.5,
              12.0
            ],
            [
              -1.2,
              11.01
            ],
            [
              -2.94,
              10.96
            ],
            [
              -2.96,
              10.4
            ],
            [
              -2.83,
              9.64
            ],
            [
              -3.51,
              9.9
            ],
            [
              -3.98,
              9.86
            ],
            [
              -4.33,
              9.61
            ],
            [
              -4.78,
              9.82
            ],
            [
              -4.95,
              10.15
            ],
            [
              -5.4,
              10.37
            ]
          ]
        ]
      }
    },
    {
      "type": "Feature",
      "properties": {
        "feature_type": "zone",
        "zone_id": "niger_west",
        "territory_key": "niger",
        "name_key": "loc.zone.niger_west.name",
        "zone_type": "border_region",
        "population": 2000000,
        "base_insurgency": 58,
        "base_stability": 42,
        "coords": {
          "lat": 14.212,
          "lon": 1.453
        },
        "multi_ethnic": true,
        "ethnic_groups": [
          "zarma",
          "hausa"
        ],
        "adjacent_zones": [
          "gao",
          "burkina_east",
          "niamey"
        ],
        "strategic_value": "medium",
        "playable": true
      },
      "geometry": {
        "type": "Polygon",
        "coordinates": [
          [
            [
              0.37,
              14.93
            ],
            [
              1.02,
              14.97
            ],
            [
              1.39,
              15.32
            ],
            [
              2.75,
              15.41
            ],
            [
              3.64,
              15.57
            ],
            [
              3.72,
              16.18
            ],
            [
              4.27,
              16.85
            ],
            [
              4.27,
              19.16
            ],
            [
              5.68,
              19.6
            ],
            [
              8.57,
              21.57
            ],
            [
              11.99,
              23.47
            ],
            [
              13.58,
              23.04
            ],
            [
              14.14,
              22.49
            ],
            [
              14.85,
              22.86
            ],
            [
              15.1,
              21.31
            ],
            [
              15.47,
              21.05
            ],
            [
              15.49,
              20.73
            ],
            [
              15.9,
              20.39
            ],
            [
              15.69,
              19.96
            ],
            [
              15.3,
              17.93
            ],
            [
              15.25,
              16.63
            ],
            [
              13.97,
              15.68
            ],
            [
              13.54,
              14.37
            ],
            [
              13.96,
              14.0
            ],
            [
              12.0,
              14.3
            ],
            [
              8.0,
              14.5
            ],
            [
              5.44,
              13.87
            ],
            [
              4.37,
              13.75
            ],
            [
              4.11,
              13.53
            ],
            [
              3.97,
              12.96
            ],
            [
              3.68,
              12.55
            ],
            [
              3.61,
              11.66
            ],
            [
              2.85,
              12.24
            ],
            [
              2.49,
              12.23
            ],
            [
              2.15,
              11.94
            ],
            [
              1.94,
              11.64
            ],
            [
              1.02,
              12.85
            ],
            [
              0.99,
              13.34
            ],
            [
              0.43,
              13.99
            ],
            [
              0.3,
              14.44
            ],
            [
              0.37,
              14.93
            ]
          ]
        ]
      }
    },
    {
      "type": "Feature",
      "properties": {
        "feature_type": "zone",
        "zone_id": "niamey",
        "territory_key": "niger",
        "name_key": "loc.zone.niamey.name",
        "zone_type": "capital",
        "population": 1400000,
        "base_insurgency": 22,
        "base_stability": 58,
        "coords": {
          "lat": 13.5137,
          "lon": 2.1098
        },
        "multi_ethnic": false,
        "ethnic_groups": [
          "zarma"
        ],
        "adjacent_zones": [
          "niger_west",
          "niger_south"
        ],
        "strategic_value": "critical",
        "playable": true
      },
      "geometry": {
        "type": "Polygon",
        "coordinates": [
          [
            [
              0.43,
              13.99
            ],
            [
              0.99,
              13.34
            ],
            [
              1.02,
              12.85
            ],
            [
              2.49,
              12.23
            ],
            [
              2.15,
              11.94
            ],
            [
              1.94,
              11.64
            ],
            [
              1.02,
              12.85
            ],
            [
              0.99,
              13.34
            ],
            [
              1.5,
              13.6
            ],
            [
              3.0,
              13.8
            ],
            [
              4.11,
              13.53
            ],
            [
              4.37,
              13.75
            ],
            [
              5.44,
              13.87
            ],
            [
              5.0,
              14.0
            ],
            [
              3.0,
              14.3
            ],
            [
              1.39,
              15.32
            ],
            [
              1.02,
              14.97
            ],
            [
              0.37,
              14.93
            ],
            [
              0.3,
              14.44
            ],
            [
              0.43,
              13.99
            ]
          ]
        ]
      }
    },
    {
      "type": "Feature",
      "properties": {
        "feature_type": "zone",
        "zone_id": "niger_south",
        "territory_key": "niger",
        "name_key": "loc.zone.niger_south.name",
        "zone_type": "border_region",
        "population": 5000000,
        "base_insurgency": 45,
        "base_stability": 48,
        "coords": {
          "lat": 13.495,
          "lon": 7.101
        },
        "multi_ethnic": true,
        "ethnic_groups": [
          "hausa",
          "fulani"
        ],
        "adjacent_zones": [
          "niamey",
          "lake_chad"
        ],
        "strategic_value": "medium",
        "playable": true
      },
      "geometry": {
        "type": "Polygon",
        "coordinates": [
          [
            [
              5.44,
              13.87
            ],
            [
              8.0,
              14.5
            ],
            [
              12.0,
              14.3
            ],
            [
              13.96,
              14.0
            ],
            [
              13.95,
              13.35
            ],
            [
              14.5,
              12.86
            ],
            [
              14.21,
              12.8
            ],
            [
              14.18,
              12.48
            ],
            [
              13.99,
              12.46
            ],
            [
              13.32,
              13.56
            ],
            [
              13.08,
              13.6
            ],
            [
              12.3,
              13.04
            ],
            [
              11.53,
              13.33
            ],
            [
              10.99,
              13.39
            ],
            [
              10.7,
              13.25
            ],
            [
              10.11,
              13.28
            ],
            [
              9.52,
              12.85
            ],
            [
              9.01,
              12.83
            ],
            [
              7.8,
              13.34
            ],
            [
              7.33,
              13.1
            ],
            [
              6.82,
              13.12
            ],
            [
              6.45,
              13.49
            ],
            [
              5.44,
              13.87
            ]
          ]
        ]
      }
    },
    {
      "type": "Feature",
      "properties": {
        "feature_type": "zone",
        "zone_id": "lake_chad",
        "territory_key": "chad",
        "name_key": "loc.zone.lake_chad.name",
        "zone_type": "humanitarian_crisis",
        "population": 2500000,
        "base_insurgency": 65,
        "base_stability": 35,
        "coords": {
          "lat": 13.45,
          "lon": 14.5
        },
        "multi_ethnic": true,
        "ethnic_groups": [
          "kanuri",
          "buduma",
          "fulani"
        ],
        "adjacent_zones": [
          "niger_south",
          "ndjamena"
        ],
        "strategic_value": "high",
        "playable": true
      },
      "geometry": {
        "type": "Polygon",
        "coordinates": [
          [
            [
              13.32,
              13.56
            ],
            [
              13.95,
              13.35
            ],
            [
              14.5,
              12.86
            ],
            [
              14.89,
              12.22
            ],
            [
              14.96,
              11.56
            ],
            [
              14.92,
              10.89
            ],
            [
              15.47,
              9.98
            ],
            [
              14.91,
              9.99
            ],
            [
              14.63,
              9.92
            ],
            [
              14.17,
              10.02
            ],
            [
              13.95,
              9.55
            ],
            [
              14.54,
              8.97
            ],
            [
              14.98,
              8.8
            ],
            [
              15.12,
              8.38
            ],
            [
              15.44,
              7.69
            ],
            [
              15.28,
              7.42
            ],
            [
              16.11,
              7.5
            ],
            [
              16.29,
              7.75
            ],
            [
              16.46,
              7.73
            ],
            [
              16.71,
              7.51
            ],
            [
              17.96,
              7.89
            ],
            [
              18.39,
              8.28
            ],
            [
              18.91,
              8.63
            ],
            [
              18.81,
              8.98
            ],
            [
              19.09,
              9.07
            ],
            [
              20.06,
              9.01
            ],
            [
              20.0,
              11.0
            ],
            [
              18.0,
              12.5
            ],
            [
              16.0,
              13.5
            ],
            [
              13.96,
              14.0
            ],
            [
              13.54,
              14.37
            ],
            [
              13.32,
              13.56
            ]
          ]
        ]
      }
    },
    {
      "type": "Feature",
      "properties": {
        "feature_type": "zone",
        "zone_id": "ndjamena",
        "territory_key": "chad",
        "name_key": "loc.zone.ndjamena.name",
        "zone_type": "capital",
        "population": 1800000,
        "base_insurgency": 28,
        "base_stability": 55,
        "coords": {
          "lat": 12.1348,
          "lon": 15.0557
        },
        "multi_ethnic": false,
        "ethnic_groups": [
          "sara",
          "arab"
        ],
        "adjacent_zones": [
          "lake_chad"
        ],
        "strategic_value": "critical",
        "playable": true
      },
      "geometry": {
        "type": "Polygon",
        "coordinates": [
          [
            [
              13.96,
              14.0
            ],
            [
              16.0,
              13.5
            ],
            [
              18.0,
              12.5
            ],
            [
              20.0,
              11.0
            ],
            [
              20.06,
              9.01
            ],
            [
              21.0,
              9.48
            ],
            [
              21.72,
              10.57
            ],
            [
              22.23,
              10.97
            ],
            [
              22.86,
              11.14
            ],
            [
              22.88,
              11.38
            ],
            [
              22.51,
              11.68
            ],
            [
              22.5,
              12.26
            ],
            [
              22.29,
              12.65
            ],
            [
              21.94,
              12.59
            ],
            [
              22.04,
              12.96
            ],
            [
              22.3,
              13.37
            ],
            [
              22.18,
              13.79
            ],
            [
              22.51,
              14.09
            ],
            [
              22.3,
              14.33
            ],
            [
              22.57,
              14.94
            ],
            [
              23.02,
              15.68
            ],
            [
              23.89,
              15.61
            ],
            [
              23.84,
              19.58
            ],
            [
              19.85,
              21.5
            ],
            [
              15.86,
              23.41
            ],
            [
              14.85,
              22.86
            ],
            [
              15.1,
              21.31
            ],
            [
              15.47,
              21.05
            ],
            [
              15.49,
              20.73
            ],
            [
              15.9,
              20.39
            ],
            [
              15.69,
              19.96
            ],
            [
              15.3,
              17.93
            ],
            [
              15.25,
              16.63
            ],
            [
              13.97,
              15.68
            ],
            [
              13.54,
              14.37
            ],
            [
              13.96,
              14.0
            ]
          ]
        ]
      }
    },
    {
      "type": "Feature",
      "properties": {
        "feature_type": "zone",
        "zone_id": "mauritania_south",
        "territory_key": "mauritania",
        "name_key": "loc.zone.mauritania_south.name",
        "zone_type": "border_region",
        "population": 800000,
        "base_insurgency": 38,
        "base_stability": 52,
        "coords": {
          "lat": 16.661,
          "lon": -9.617
        },
        "multi_ethnic": true,
        "ethnic_groups": [
          "moor",
          "fulani"
        ],
        "adjacent_zones": [
          "timbuktu",
          "nouakchott"
        ],
        "strategic_value": "low",
        "playable": true
      },
      "geometry": {
        "type": "Polygon",
        "coordinates": [
          [
            [
              -17.06,
              21.0
            ],
            [
              -16.54,
              20.57
            ],
            [
              -16.28,
              20.09
            ],
            [
              -16.38,
              19.59
            ],
            [
              -16.26,
              19.1
            ],
            [
              -16.15,
              18.11
            ],
            [
              -16.27,
              17.17
            ],
            [
              -16.55,
              16.67
            ],
            [
              -16.46,
              16.14
            ],
            [
              -16.12,
              16.46
            ],
            [
              -15.62,
              16.37
            ],
            [
              -15.14,
              16.59
            ],
            [
              -14.58,
              16.6
            ],
            [
              -14.1,
              16.3
            ],
            [
              -13.44,
              16.04
            ],
            [
              -12.83,
              15.3
            ],
            [
              -12.17,
              14.62
            ],
            [
              -11.83,
              14.8
            ],
            [
              -11.67,
              15.39
            ],
            [
              -11.35,
              15.41
            ],
            [
              -10.65,
              15.13
            ],
            [
              -10.09,
              15.33
            ],
            [
              -9.7,
              15.26
            ],
            [
              -9.55,
              15.49
            ],
            [
              -5.54,
              15.5
            ],
            [
              -5.32,
              16.2
            ],
            [
              -5.49,
              16.33
            ],
            [
              -5.5,
              18.5
            ],
            [
              -10.0,
              18.5
            ],
            [
              -14.0,
              18.5
            ],
            [
              -16.15,
              18.11
            ],
            [
              -17.06,
              21.0
            ]
          ]
        ]
      }
    },
    {
      "type": "Feature",
      "properties": {
        "feature_type": "zone",
        "zone_id": "nouakchott",
        "territory_key": "mauritania",
        "name_key": "loc.zone.nouakchott.name",
        "zone_type": "capital",
        "population": 1200000,
        "base_insurgency": 18,
        "base_stability": 62,
        "coords": {
          "lat": 18.0735,
          "lon": -15.9582
        },
        "multi_ethnic": false,
        "ethnic_groups": [
          "moor"
        ],
        "adjacent_zones": [
          "mauritania_south"
        ],
        "strategic_value": "medium",
        "playable": true
      },
      "geometry": {
        "type": "Polygon",
        "coordinates": [
          [
            [
              -17.06,
              21.0
            ],
            [
              -16.15,
              18.11
            ],
            [
              -14.0,
              18.5
            ],
            [
              -10.0,
              18.5
            ],
            [
              -5.5,
              18.5
            ],
            [
              -5.49,
              16.33
            ],
            [
              -5.97,
              20.64
            ],
            [
              -6.45,
              24.96
            ],
            [
              -4.92,
              24.97
            ],
            [
              -8.69,
              25.88
            ],
            [
              -8.68,
              27.4
            ],
            [
              -4.92,
              24.97
            ],
            [
              -1.55,
              22.79
            ],
            [
              1.82,
              20.61
            ],
            [
              -1.55,
              22.79
            ],
            [
              -4.92,
              24.97
            ],
            [
              -6.45,
              24.96
            ],
            [
              -5.97,
              20.64
            ],
            [
              -5.5,
              18.5
            ],
            [
              -10.0,
              18.5
            ],
            [
              -12.93,
              21.33
            ],
            [
              -13.12,
              22.77
            ],
            [
              -12.87,
              23.28
            ],
            [
              -11.94,
              23.37
            ],
            [
              -11.97,
              25.93
            ],
            [
              -8.69,
              25.88
            ],
            [
              -8.68,
              27.4
            ],
            [
              -17.06,
              21.0
            ]
          ]
        ]
      }
    },
    {
      "type": "Feature",
      "properties": {
        "feature_type": "neighbour",
        "key": "algeria",
        "iso_a3": "DZA",
        "ADM0_A3": "DZA",
        "name": "Algeria",
        "name_key": "loc.territory.algeria.name",
        "playable": false,
        "coords": {
          "lat": 28.03,
          "lon": 1.66
        }
      },
      "geometry": {
        "type": "Polygon",
        "coordinates": [
          [
            [
              -8.68,
              27.4
            ],
            [
              -8.69,
              25.88
            ],
            [
              -11.97,
              25.93
            ],
            [
              -11.94,
              23.37
            ],
            [
              -12.87,
              23.28
            ],
            [
              -13.12,
              22.77
            ],
            [
              -12.93,
              21.33
            ],
            [
              -16.85,
              21.33
            ],
            [
              -17.0,
              21.42
            ],
            [
              -17.02,
              21.83
            ],
            [
              -16.97,
              22.2
            ],
            [
              -16.73,
              23.06
            ],
            [
              -15.86,
              24.04
            ],
            [
              -15.09,
              24.52
            ],
            [
              -14.82,
              25.1
            ],
            [
              -13.89,
              26.09
            ],
            [
              -13.79,
              26.79
            ],
            [
              -13.54,
              27.15
            ],
            [
              -13.41,
              27.61
            ],
            [
              -13.11,
              27.64
            ],
            [
              -12.66,
              28.11
            ],
            [
              -11.65,
              28.46
            ],
            [
              -10.9,
              28.83
            ],
            [
              -10.4,
              29.1
            ],
            [
              -9.65,
              29.75
            ],
            [
              -9.41,
              30.18
            ],
            [
              -9.6,
              30.68
            ],
            [
              -9.81,
              30.86
            ],
            [
              -9.74,
              31.44
            ],
            [
              -9.28,
              32.24
            ],
            [
              -8.72,
              33.46
            ],
            [
              -8.6,
              33.87
            ],
            [
              -7.65,
              33.7
            ],
            [
              -6.85,
              34.04
            ],
            [
              -5.27,
              35.9
            ],
            [
              -4.33,
              35.16
            ],
            [
              -3.63,
              35.39
            ],
            [
              -2.17,
              35.17
            ],
            [
              -1.21,
              35.71
            ],
            [
              -0.13,
              35.89
            ],
            [
              0.5,
              36.3
            ],
            [
              1.47,
              36.61
            ],
            [
              2.97,
              36.8
            ],
            [
              3.78,
              36.9
            ],
            [
              4.82,
              36.89
            ],
            [
              5.32,
              36.72
            ],
            [
              6.26,
              37.11
            ],
            [
              7.33,
              37.12
            ],
            [
              7.88,
              36.9
            ],
            [
              8.42,
              36.95
            ],
            [
              8.22,
              36.43
            ],
            [
              8.38,
              35.48
            ],
            [
              8.14,
              34.66
            ],
            [
              7.52,
              34.1
            ],
            [
              7.61,
              33.34
            ],
            [
              8.43,
              32.75
            ],
            [
              8.44,
              32.51
            ],
            [
              9.06,
              32.1
            ],
            [
              9.48,
              30.31
            ],
            [
              9.81,
              29.42
            ],
            [
              9.86,
              28.96
            ],
            [
              9.68,
              28.14
            ],
            [
              9.76,
              27.69
            ],
            [
              9.63,
              27.14
            ],
            [
              9.72,
              26.17
            ],
            [
              9.32,
              26.09
            ],
            [
              9.22,
              25.59
            ],
            [
              8.84,
              24.87
            ],
            [
              8.57,
              21.57
            ],
            [
              5.68,
              19.6
            ],
            [
              4.27,
              19.16
            ],
            [
              3.16,
              19.06
            ],
            [
              3.15,
              19.69
            ],
            [
              2.68,
              19.86
            ],
            [
              2.06,
              20.14
            ],
            [
              1.82,
              20.61
            ],
            [
              -1.55,
              22.79
            ],
            [
              -4.92,
              24.97
            ],
            [
              -8.68,
              27.4
            ]
          ]
        ]
      }
    },
    {
      "type": "Feature",
      "properties": {
        "feature_type": "neighbour",
        "key": "libya",
        "iso_a3": "LBY",
        "ADM0_A3": "LBY",
        "name": "Libya",
        "name_key": "loc.territory.libya.name",
        "playable": false,
        "coords": {
          "lat": 26.34,
          "lon": 17.23
        }
      },
      "geometry": {
        "type": "Polygon",
        "coordinates": [
          [
            [
              14.85,
              22.86
            ],
            [
              15.86,
              23.41
            ],
            [
              19.85,
              21.5
            ],
            [
              23.84,
              19.58
            ],
            [
              23.89,
              15.61
            ],
            [
              24.92,
              15.57
            ],
            [
              25.0,
              20.0
            ],
            [
              25.0,
              22.0
            ],
            [
              25.0,
              25.68
            ],
            [
              25.0,
              29.24
            ],
            [
              24.7,
              30.04
            ],
            [
              24.8,
              30.55
            ],
            [
              24.82,
              31.39
            ],
            [
              25.15,
              31.66
            ],
            [
              24.53,
              31.76
            ],
            [
              23.94,
              32.0
            ],
            [
              23.1,
              32.32
            ],
            [
              22.44,
              32.38
            ],
            [
              21.14,
              32.31
            ],
            [
              20.02,
              32.1
            ],
            [
              19.09,
              32.27
            ],
            [
              18.86,
              32.44
            ],
            [
              18.02,
              32.54
            ],
            [
              17.35,
              32.04
            ],
            [
              16.36,
              32.09
            ],
            [
              15.68,
              31.93
            ],
            [
              15.19,
              32.01
            ],
            [
              14.18,
              32.09
            ],
            [
              13.91,
              32.39
            ],
            [
              13.26,
              32.9
            ],
            [
              12.97,
              32.83
            ],
            [
              12.28,
              32.86
            ],
            [
              11.99,
              32.65
            ],
            [
              11.53,
              33.1
            ],
            [
              11.04,
              33.09
            ],
            [
              10.64,
              33.18
            ],
            [
              10.53,
              33.08
            ],
            [
              10.17,
              32.62
            ],
            [
              10.07,
              31.79
            ],
            [
              9.95,
              31.38
            ],
            [
              10.06,
              30.96
            ],
            [
              9.95,
              30.54
            ],
            [
              9.81,
              29.42
            ],
            [
              9.86,
              28.96
            ],
            [
              9.68,
              28.14
            ],
            [
              9.76,
              27.69
            ],
            [
              9.63,
              27.14
            ],
            [
              9.72,
              26.17
            ],
            [
              9.32,
              26.09
            ],
            [
              9.22,
              25.59
            ],
            [
              8.84,
              24.87
            ],
            [
              8.57,
              21.57
            ],
            [
              11.99,
              23.47
            ],
            [
              13.58,
              23.04
            ],
            [
              14.14,
              22.49
            ],
            [
              14.85,
              22.86
            ]
          ]
        ]
      }
    },
    {
      "type": "Feature",
      "properties": {
        "feature_type": "neighbour",
        "key": "nigeria",
        "iso_a3": "NGA",
        "ADM0_A3": "NGA",
        "name": "Nigeria",
        "name_key": "loc.territory.nigeria.name",
        "playable": false,
        "coords": {
          "lat": 9.08,
          "lon": 7.49
        }
      },
      "geometry": {
        "type": "Polygon",
        "coordinates": [
          [
            [
              2.69,
              6.26
            ],
            [
              2.75,
              7.87
            ],
            [
              2.72,
              8.51
            ],
            [
              2.91,
              9.14
            ],
            [
              3.22,
              9.44
            ],
            [
              3.53,
              9.91
            ],
            [
              3.61,
              11.66
            ],
            [
              3.68,
              12.55
            ],
            [
              3.97,
              12.96
            ],
            [
              4.11,
              13.53
            ],
            [
              4.37,
              13.75
            ],
            [
              5.44,
              13.87
            ],
            [
              6.45,
              13.49
            ],
            [
              6.82,
              13.12
            ],
            [
              7.33,
              13.1
            ],
            [
              7.8,
              13.34
            ],
            [
              9.01,
              12.83
            ],
            [
              9.52,
              12.85
            ],
            [
              10.11,
              13.28
            ],
            [
              10.7,
              13.25
            ],
            [
              10.99,
              13.39
            ],
            [
              11.53,
              13.33
            ],
            [
              12.3,
              13.04
            ],
            [
              13.08,
              13.6
            ],
            [
              13.32,
              13.56
            ],
            [
              13.95,
              13.35
            ],
            [
              14.5,
              12.86
            ],
            [
              14.21,
              12.8
            ],
            [
              14.18,
              12.48
            ],
            [
              13.99,
              12.46
            ],
            [
              13.95,
              9.55
            ],
            [
              14.17,
              10.02
            ],
            [
              13.95,
              9.55
            ],
            [
              14.54,
              8.97
            ],
            [
              13.95,
              9.55
            ],
            [
              12.75,
              8.72
            ],
            [
              12.22,
              8.31
            ],
            [
              12.06,
              7.8
            ],
            [
              11.84,
              7.4
            ],
            [
              11.74,
              6.98
            ],
            [
              11.06,
              6.64
            ],
            [
              10.5,
              7.06
            ],
            [
              10.12,
              7.04
            ],
            [
              9.59,
              6.31
            ],
            [
              8.5,
              4.77
            ],
            [
              7.46,
              4.41
            ],
            [
              7.08,
              4.46
            ],
            [
              6.7,
              4.24
            ],
            [
              5.9,
              4.26
            ],
            [
              5.36,
              4.61
            ],
            [
              5.03,
              5.61
            ],
            [
              4.34,
              6.27
            ],
            [
              3.6,
              6.25
            ],
            [
              2.69,
              6.26
            ]
          ]
        ]
      }
    },
    {
      "type": "Feature",
      "properties": {
        "feature_type": "neighbour",
        "key": "cameroon",
        "iso_a3": "CMR",
        "ADM0_A3": "CMR",
        "name": "Cameroon",
        "name_key": "loc.territory.cameroon.name",
        "playable": false,
        "coords": {
          "lat": 7.37,
          "lon": 12.35
        }
      },
      "geometry": {
        "type": "Polygon",
        "coordinates": [
          [
            [
              14.5,
              12.86
            ],
            [
              14.89,
              12.22
            ],
            [
              14.96,
              11.56
            ],
            [
              14.92,
              10.89
            ],
            [
              15.47,
              9.98
            ],
            [
              14.91,
              9.99
            ],
            [
              14.63,
              9.92
            ],
            [
              14.17,
              10.02
            ],
            [
              13.95,
              9.55
            ],
            [
              14.54,
              8.97
            ],
            [
              14.98,
              8.8
            ],
            [
              15.12,
              8.38
            ],
            [
              15.44,
              7.69
            ],
            [
              15.28,
              7.42
            ],
            [
              14.78,
              6.41
            ],
            [
              14.56,
              5.73
            ],
            [
              14.43,
              5.28
            ],
            [
              13.98,
              4.47
            ],
            [
              14.33,
              4.24
            ],
            [
              14.6,
              4.02
            ],
            [
              14.54,
              3.59
            ],
            [
              14.29,
              3.23
            ],
            [
              13.99,
              2.84
            ],
            [
              13.52,
              2.29
            ],
            [
              12.58,
              2.25
            ],
            [
              11.35,
              2.3
            ],
            [
              10.5,
              2.17
            ],
            [
              9.83,
              2.33
            ],
            [
              9.58,
              3.24
            ],
            [
              9.34,
              3.88
            ],
            [
              9.0,
              4.06
            ],
            [
              8.94,
              4.45
            ],
            [
              8.65,
              4.5
            ],
            [
              8.49,
              4.77
            ],
            [
              8.5,
              4.77
            ],
            [
              9.59,
              6.31
            ],
            [
              10.12,
              7.04
            ],
            [
              10.5,
              7.06
            ],
            [
              11.06,
              6.64
            ],
            [
              11.74,
              6.98
            ],
            [
              11.84,
              7.4
            ],
            [
              12.06,
              7.8
            ],
            [
              12.22,
              8.31
            ],
            [
              12.75,
              8.72
            ],
            [
              13.95,
              9.55
            ],
            [
              13.99,
              12.46
            ],
            [
              14.18,
              12.48
            ],
            [
              14.21,
              12.8
            ],
            [
              14.5,
              12.86
            ]
          ]
        ]
      }
    },
    {
      "type": "Feature",
      "properties": {
        "feature_type": "neighbour",
        "key": "senegal",
        "iso_a3": "SEN",
        "ADM0_A3": "SEN",
        "name": "Senegal",
        "name_key": "loc.territory.senegal.name",
        "playable": false,
        "coords": {
          "lat": 14.5,
          "lon": -14.45
        }
      },
      "geometry": {
        "type": "Polygon",
        "coordinates": [
          [
            [
              -16.71,
              12.35
            ],
            [
              -16.68,
              12.38
            ],
            [
              -16.15,
              12.55
            ],
            [
              -15.82,
              12.52
            ],
            [
              -15.55,
              12.63
            ],
            [
              -15.04,
              12.68
            ],
            [
              -14.85,
              12.68
            ],
            [
              -14.71,
              12.68
            ],
            [
              -14.28,
              12.55
            ],
            [
              -13.72,
              12.67
            ],
            [
              -13.7,
              12.59
            ],
            [
              -13.83,
              12.53
            ],
            [
              -13.83,
              12.08
            ],
            [
              -13.98,
              12.08
            ],
            [
              -14.3,
              12.32
            ],
            [
              -14.61,
              12.13
            ],
            [
              -14.94,
              12.15
            ],
            [
              -15.2,
              12.08
            ],
            [
              -15.55,
              12.13
            ],
            [
              -15.82,
              12.24
            ],
            [
              -16.01,
              12.21
            ],
            [
              -16.19,
              12.21
            ],
            [
              -16.42,
              12.36
            ],
            [
              -16.55,
              12.31
            ],
            [
              -16.72,
              12.27
            ],
            [
              -16.7,
              12.17
            ],
            [
              -16.66,
              12.33
            ],
            [
              -16.66,
              12.37
            ],
            [
              -16.42,
              12.37
            ],
            [
              -16.05,
              12.55
            ],
            [
              -15.2,
              13.17
            ],
            [
              -14.85,
              13.23
            ],
            [
              -14.25,
              13.23
            ],
            [
              -13.84,
              13.24
            ],
            [
              -13.73,
              13.53
            ],
            [
              -14.11,
              13.6
            ],
            [
              -14.58,
              13.64
            ],
            [
              -15.15,
              13.59
            ],
            [
              -15.43,
              13.73
            ],
            [
              -15.69,
              13.82
            ],
            [
              -15.93,
              13.59
            ],
            [
              -16.5,
              13.59
            ],
            [
              -16.68,
              13.43
            ],
            [
              -16.74,
              13.24
            ],
            [
              -16.65,
              12.98
            ],
            [
              -16.76,
              13.06
            ],
            [
              -17.02,
              13.33
            ],
            [
              -17.24,
              14.58
            ],
            [
              -17.5,
              14.63
            ],
            [
              -17.33,
              14.73
            ],
            [
              -16.94,
              15.14
            ],
            [
              -16.53,
              15.36
            ],
            [
              -16.46,
              16.14
            ],
            [
              -16.12,
              16.46
            ],
            [
              -15.62,
              16.37
            ],
            [
              -15.14,
              16.59
            ],
            [
              -14.58,
              16.6
            ],
            [
              -14.1,
              16.3
            ],
            [
              -13.44,
              16.04
            ],
            [
              -12.83,
              15.3
            ],
            [
              -12.17,
              14.62
            ],
            [
              -12.12,
              14.0
            ],
            [
              -11.93,
              13.42
            ],
            [
              -11.55,
              13.14
            ],
            [
              -11.47,
              12.75
            ],
            [
              -11.51,
              12.44
            ],
            [
              -11.46,
              12.08
            ],
            [
              -11.51,
              12.44
            ],
            [
              -11.47,
              12.75
            ],
            [
              -12.1,
              12.63
            ],
            [
              -12.41,
              12.4
            ],
            [
              -12.74,
              12.21
            ],
            [
              -13.08,
              12.12
            ],
            [
              -13.42,
              12.08
            ],
            [
              -13.72,
              12.15
            ],
            [
              -14.28,
              12.28
            ],
            [
              -14.71,
              12.4
            ],
            [
              -16.71,
              12.35
            ]
          ]
        ]
      }
    },
    {
      "type": "Feature",
      "properties": {
        "feature_type": "neighbour",
        "key": "benin",
        "iso_a3": "BEN",
        "ADM0_A3": "BEN",
        "name": "Benin",
        "name_key": "loc.territory.benin.name",
        "playable": false,
        "coords": {
          "lat": 9.31,
          "lon": 2.32
        }
      },
      "geometry": {
        "type": "Polygon",
        "coordinates": [
          [
            [
              1.62,
              6.22
            ],
            [
              1.66,
              9.13
            ],
            [
              1.46,
              9.33
            ],
            [
              1.43,
              9.83
            ],
            [
              1.24,
              11.11
            ],
            [
              0.9,
              10.997
            ],
            [
              0.02,
              11.02
            ],
            [
              -0.44,
              11.1
            ],
            [
              -0.76,
              10.94
            ],
            [
              -1.2,
              11.01
            ],
            [
              -2.94,
              10.96
            ],
            [
              -2.96,
              10.4
            ],
            [
              0.37,
              14.93
            ],
            [
              0.3,
              14.44
            ],
            [
              0.43,
              13.99
            ],
            [
              0.99,
              13.34
            ],
            [
              1.02,
              12.85
            ],
            [
              2.18,
              12.63
            ],
            [
              2.15,
              11.94
            ],
            [
              1.94,
              11.64
            ],
            [
              1.45,
              11.55
            ],
            [
              1.24,
              11.11
            ],
            [
              1.43,
              9.83
            ],
            [
              1.62,
              6.22
            ]
          ]
        ]
      }
    },
    {
      "type": "Feature",
      "properties": {
        "feature_type": "neighbour",
        "key": "ghana",
        "iso_a3": "GHA",
        "ADM0_A3": "GHA",
        "name": "Ghana",
        "name_key": "loc.territory.ghana.name",
        "playable": false,
        "coords": {
          "lat": 7.95,
          "lon": -1.02
        }
      },
      "geometry": {
        "type": "Polygon",
        "coordinates": [
          [
            [
              1.2,
              6.1
            ],
            [
              0.52,
              6.99
            ],
            [
              0.02,
              11.02
            ],
            [
              -0.44,
              11.1
            ],
            [
              -0.76,
              10.94
            ],
            [
              -1.2,
              11.01
            ],
            [
              -2.94,
              10.96
            ],
            [
              -2.96,
              10.4
            ],
            [
              -2.83,
              9.64
            ],
            [
              -3.24,
              8.86
            ],
            [
              -2.94,
              7.57
            ],
            [
              -2.86,
              6.85
            ],
            [
              -2.42,
              6.39
            ],
            [
              -2.06,
              5.88
            ],
            [
              -1.96,
              5.71
            ],
            [
              -1.6,
              5.0
            ],
            [
              0.02,
              5.0
            ],
            [
              1.2,
              6.1
            ]
          ]
        ]
      }
    },
    {
      "type": "Feature",
      "properties": {
        "feature_type": "neighbour",
        "key": "cote_divoire",
        "iso_a3": "CIV",
        "ADM0_A3": "CIV",
        "name": "Côte d'Ivoire",
        "name_key": "loc.territory.cote_divoire.name",
        "playable": false,
        "coords": {
          "lat": 7.54,
          "lon": -5.55
        }
      },
      "geometry": {
        "type": "Polygon",
        "coordinates": [
          [
            [
              -2.83,
              9.64
            ],
            [
              -3.51,
              9.9
            ],
            [
              -3.98,
              9.86
            ],
            [
              -4.33,
              9.61
            ],
            [
              -4.78,
              9.82
            ],
            [
              -4.95,
              10.15
            ],
            [
              -5.4,
              10.37
            ],
            [
              -5.82,
              10.22
            ],
            [
              -6.05,
              10.1
            ],
            [
              -6.21,
              10.52
            ],
            [
              -6.49,
              10.41
            ],
            [
              -6.67,
              10.43
            ],
            [
              -6.85,
              10.14
            ],
            [
              -7.62,
              10.15
            ],
            [
              -7.9,
              10.3
            ],
            [
              -8.03,
              10.21
            ],
            [
              -8.24,
              9.5
            ],
            [
              -8.08,
              8.83
            ],
            [
              -7.97,
              8.06
            ],
            [
              -7.68,
              7.36
            ],
            [
              -7.57,
              5.71
            ],
            [
              -7.39,
              5.27
            ],
            [
              -7.2,
              4.36
            ],
            [
              -6.25,
              4.08
            ],
            [
              -5.47,
              4.5
            ],
            [
              -4.3,
              5.0
            ],
            [
              -3.48,
              5.39
            ],
            [
              -3.0,
              5.53
            ],
            [
              -2.42,
              6.39
            ],
            [
              -2.86,
              6.85
            ],
            [
              -2.94,
              7.57
            ],
            [
              -3.24,
              8.86
            ],
            [
              -2.83,
              9.64
            ]
          ]
        ]
      }
    },
    {
      "type": "Feature",
      "properties": {
        "feature_type": "neighbour",
        "key": "guinea",
        "iso_a3": "GIN",
        "ADM0_A3": "GIN",
        "name": "Guinea",
        "name_key": "loc.territory.guinea.name",
        "playable": false,
        "coords": {
          "lat": 9.95,
          "lon": -11.55
        }
      },
      "geometry": {
        "type": "Polygon",
        "coordinates": [
          [
            [
              -8.03,
              10.21
            ],
            [
              -8.34,
              10.49
            ],
            [
              -8.28,
              10.79
            ],
            [
              -8.41,
              10.91
            ],
            [
              -8.62,
              10.81
            ],
            [
              -8.58,
              11.14
            ],
            [
              -8.38,
              11.39
            ],
            [
              -8.79,
              11.81
            ],
            [
              -8.91,
              12.09
            ],
            [
              -9.13,
              12.31
            ],
            [
              -9.33,
              12.33
            ],
            [
              -9.57,
              12.19
            ],
            [
              -9.89,
              12.06
            ],
            [
              -10.17,
              11.84
            ],
            [
              -10.59,
              11.92
            ],
            [
              -10.87,
              12.18
            ],
            [
              -11.04,
              12.21
            ],
            [
              -11.3,
              12.08
            ],
            [
              -11.46,
              12.08
            ],
            [
              -11.51,
              12.44
            ],
            [
              -12.1,
              12.63
            ],
            [
              -12.41,
              12.4
            ],
            [
              -12.74,
              12.21
            ],
            [
              -13.08,
              12.12
            ],
            [
              -13.42,
              12.08
            ],
            [
              -13.69,
              12.0
            ],
            [
              -13.72,
              11.73
            ],
            [
              -13.83,
              11.57
            ],
            [
              -14.12,
              11.14
            ],
            [
              -14.38,
              10.86
            ],
            [
              -14.68,
              10.29
            ],
            [
              -14.8,
              9.86
            ],
            [
              -14.66,
              9.73
            ],
            [
              -14.69,
              9.27
            ],
            [
              -14.41,
              9.02
            ],
            [
              -14.07,
              8.81
            ],
            [
              -13.55,
              8.43
            ],
            [
              -12.96,
              7.8
            ],
            [
              -12.5,
              7.64
            ],
            [
              -12.28,
              8.05
            ],
            [
              -11.96,
              8.08
            ],
            [
              -11.48,
              7.73
            ],
            [
              -11.02,
              7.95
            ],
            [
              -10.6,
              8.07
            ],
            [
              -10.33,
              8.31
            ],
            [
              -9.93,
              8.3
            ],
            [
              -9.5,
              8.35
            ],
            [
              -9.34,
              7.93
            ],
            [
              -8.97,
              7.63
            ],
            [
              -8.79,
              7.89
            ],
            [
              -8.49,
              8.02
            ],
            [
              -8.44,
              8.26
            ],
            [
              -8.28,
              8.43
            ],
            [
              -8.19,
              8.67
            ],
            [
              -8.08,
              8.83
            ],
            [
              -8.24,
              9.5
            ],
            [
              -8.03,
              10.21
            ]
          ]
        ]
      }
    },
    {
      "type": "Feature",
      "properties": {
        "feature_type": "neighbour",
        "key": "togo",
        "iso_a3": "TGO",
        "ADM0_A3": "TGO",
        "name": "Togo",
        "name_key": "loc.territory.togo.name",
        "playable": false,
        "coords": {
          "lat": 8.62,
          "lon": 1.17
        }
      },
      "geometry": {
        "type": "Polygon",
        "coordinates": [
          [
            [
              1.62,
              6.22
            ],
            [
              1.43,
              9.83
            ],
            [
              1.24,
              11.11
            ],
            [
              0.9,
              10.997
            ],
            [
              0.02,
              11.02
            ],
            [
              0.52,
              6.99
            ],
            [
              1.2,
              6.1
            ],
            [
              1.62,
              6.22
            ]
          ]
        ]
      }
    }
  ]
}